satname,norad_id,inclination_deg,eccentricity,mean_motion_rev_per_day,perigee_km,apogee_km,l1,l2
STARLINK-1316,45415,53.1523,0.0001415,15.42341355,438.2365403914737,440.16584710030475,1 45415U 20019BH  26197.42279500  .00027642  00000+0  63848-3 0  9997,2 45415  53.1523 245.7795 0001415 319.5223  40.5677 15.42341355349788
STARLINK-1286,45417,53.0417,0.0006788,15.68556541,358.4536272644127,367.60543494704143,1 45417U 20019BK  26197.40446828  .00038431  00000+0  33577-3 0  9990,2 45417  53.0417 224.7116 0006788  24.3707 335.7629 15.68556541350300
STARLINK-1308,45419,53.0429,0.0003333,15.69504708,358.068355763261,362.5602073875598,1 45419U 20019BM  26197.52520661  .00032898  00000+0  27758-3 0  9998,2 45419  53.0429 243.1432 0003333 126.9197 233.2125 15.69504708349801
STARLINK-1329,45531,53.0383,0.0003628,15.78704199,331.6758648822797,336.54627208077,1 45531U 20025A   26197.31273340  .00056103  00000+0  31540-3 0  9995,2 45531  53.0383 165.5384 0003628  34.2924 325.8330 15.78704199345655
STARLINK-1338,45532,53.04,0.0002937,15.75326468,341.72813501962264,345.67654344748826,1 45532U 20025B   26197.36839272  .00045767  00000+0  29989-3 0  9991,2 45532  53.0400 173.0092 0002937  77.6515 282.4833 15.75326468345556
STARLINK-1350,45535,53.0699,0.0001819,15.40356334,443.815693221718,446.2979711378648,1 45535U 20025E   26197.15092535  .00027778  00000+0  68510-3 0  9999,2 45535  53.0699 148.3139 0001819  85.2420 274.8791 15.40356334345920
STARLINK-1362,45538,53.154,0.0005669,15.40637817,440.35811942685723,448.09331427522284,1 45538U 20025H   26197.43851205  .00004907  00000+0  12834-3 0  9997,2 45538  53.1540 218.5035 0005669 358.2585   1.8399 15.40637817344958
STARLINK-1368,45540,53.1539,0.0004317,15.40914562,440.4639764393414,446.3536991156798,1 45540U 20025K   26197.44715010  .00020813  00000+0  50680-3 0  9999,2 45540  53.1539 218.7792 0004317 355.8789   4.2180 15.40914562344948
STARLINK-1371,45542,53.0401,0.0002629,15.72186142,350.8807573662971,354.41980531882655,1 45542U 20025M   26197.23844921  .00037530  00000+0  28244-3 0  9997,2 45542  53.0401 184.3604 0002629  65.8067 294.3225 15.72186142345389
STARLINK-1372,45543,53.1541,0.0004615,15.41369085,438.9202103677044,445.2152593379724,1 45543U 20025N   26197.52429936  .00024585  00000+0  58767-3 0  9994,2 45543  53.1541 217.7909 0004615 348.6254  11.4646 15.41369085344066
STARLINK-1373,45544,53.0412,0.000332,15.73987204,345.281838971061,349.7476717366153,1 45544U 20025P   26197.32736780  .00042548  00000+0  29580-3 0  9991,2 45544  53.0412 178.5069 0003320  71.2140 288.9239 15.73987204345478
STARLINK-1327,45555,53.0394,0.0002445,15.76008162,340.1208529912592,343.4068845160791,1 45555U 20025AA  26197.17179056  .00047221  00000+0  30020-3 0  9997,2 45555  53.0394 156.3404 0002445  97.2818 262.8479 15.76008162345762
STARLINK-1356,45564,53.0399,0.0004226,15.68454113,360.4740751272584,366.1719571328922,1 45564U 20025AK  26197.39004994  .00027750  00000+0  24535-3 0  9998,2 45564  53.0399 169.9572 0004226  56.8249 303.3172 15.68454113345595
STARLINK-1357,45565,53.0431,0.0001307,15.739951,346.61322261645364,348.37130210563464,1 45565U 20025AL  26197.81071530  .00047217  00000+0  32756-3 0  9990,2 45565  53.0431 123.2162 0001307 233.4915 126.5983 15.73995100346296
STARLINK-1361,45567,53.0393,0.0002687,15.72331459,350.4271115374386,354.04401375260386,1 45567U 20025AN  26197.84760500  .00043228  00000+0  32242-3 0  9995,2 45567  53.0393 165.4440 0002687  89.3896 270.7429 15.72331459345702
STARLINK-1376,45570,53.154,0.0002879,15.41850086,438.6860957625049,442.61235287046657,1 45570U 20025AR  26197.36105301  .00026762  00000+0  62868-3 0  9999,2 45570  53.1540 194.8464 0002879  11.0577 349.0491 15.41850086345273
STARLINK-1320,45572,53.0335,0.0001994,16.03875667,262.3730040228538,265.0217675759104,1 45572U 20025AT  26196.86743234  .00320711  57001-4  49078-3 0  9995,2 45572  53.0335  60.6154 0001994 196.6680 163.4286 16.03875667347097
STARLINK-1321,45573,53.041,0.0002082,15.72878906,349.27284432051147,352.0747211304388,1 45573U 20025AU  26197.58983279  .00046857  00000+0  34097-3 0  9994,2 45573  53.0410 150.4696 0002082  94.9751 265.1504 15.72878906345588
STARLINK-1331,45578,53.0437,0.0002006,15.72578108,350.1818282409895,352.88177136347076,1 45578U 20025AZ  26197.87321100  .00042306  00000+0  31241-3 0  9993,2 45578  53.0437 156.0514 0002006  84.8409 275.2838 15.72578108345849
STARLINK-1333,45580,53.1537,0.0004389,15.38835781,446.5541721041118,452.547516493838,1 45580U 20025BB  26197.29011722  .00025463  00000+0  66101-3 0  9996,2 45580  53.1537 197.5292 0004389   8.2701 351.8375 15.38835781345233
STARLINK-1335,45581,53.1513,0.0003479,15.40366683,442.65249242129994,447.4000494252077,1 45581U 20025BC  26197.40765718  .00026608  00000+0  65651-3 0  9992,2 45581  53.1513 193.2275 0003479 341.0280  19.0595 15.40366683345297
STARLINK-1337,45582,53.0413,0.0001626,15.80458727,328.0518621436122,330.23306942588533,1 45582U 20025BD  26197.84321786  .00067837  00000+0  35109-3 0  9998,2 45582  53.0413 143.1355 0001626 124.6977 235.4198 15.80458727346007
STARLINK-1347,45586,53.0362,0.000155,15.72831593,349.76573689523866,351.85171006951805,1 45586U 20025BH  26197.04695203  .00045996  00000+0  33550-3 0  9992,2 45586  53.0362 119.4767 0001550  83.8381 276.2813 15.72831593346260
STARLINK-1364,45589,53.0397,0.0004425,15.73573072,345.7181158360472,351.6713619249558,1 45589U 20025BL  26197.28979088  .00043252  00000+0  30591-3 0  9992,2 45589  53.0397 154.7688 0004425  60.0178 300.1279 15.73573072345796
STARLINK-1365,45590,53.042,0.0002838,15.68635981,360.888856688096,364.7150136276914,1 45590U 20025BM  26197.43863440  .00031309  00000+0  27407-3 0  9997,2 45590  53.0420 189.9619 0002838  53.8721 306.2558 15.68635981345338
STARLINK-1443,45660,53.1318,0.0002651,15.35403805,457.9086295285533,461.5340620234847,1 45660U 20035D   26197.29579522  .00023214  00000+0  67421-3 0  9991,2 45660  53.1318 186.9382 0002651  54.3575 305.7675 15.35403805338454
STARLINK-1446,45663,53.0207,0.0002417,15.49860517,415.4913249518204,418.7761588284502,1 45663U 20035G   26197.44135762  .00020457  00000+0  36770-3 0  9994,2 45663  53.0207 104.7147 0002417  33.3753 326.7406 15.49860517339598
STARLINK-1448,45665,53.04,0.0002048,15.77705595,335.56785282776127,338.31834963722577,1 45665U 20035J   26197.83681596  .00061915  00000+0  36340-3 0  9997,2 45665  53.0400 138.8100 0002048 111.4414 248.6824 15.77705595339146
STARLINK-1451,45668,53.0489,0.0002442,15.15877589,516.6314466535596,519.9996740840443,1 45668U 20035M   26197.41783580  .00011367  00000+0  60183-3 0  9998,2 45668  53.0489 202.1395 0002442  18.3268 341.7812 15.15877589338233
STARLINK-1452,45669,53.0219,0.0006992,15.65011508,368.48512400429445,377.92620158394493,1 45669U 20035N   26197.16926833  .00027524  00000+0  27928-3 0  9993,2 45669  53.0219 120.3458 0006992  78.3740 281.8058 15.65011508339357
STARLINK-1453,45670,53.036,0.0001888,15.78644338,333.0134451866834,335.5480541289553,1 45670U 20035P   26197.85411598  .00069016  00000+0  38768-3 0  9994,2 45670  53.0360  98.8326 0001888 186.8272 173.2723 15.78644338339601
STARLINK-1454,45671,53.0417,0.0001636,15.76008376,340.66388475837994,342.86263612359653,1 45671U 20035Q   26197.11996059  .00054204  00000+0  34372-3 0  9994,2 45671  53.0417 144.0705 0001636  91.0572 269.0635 15.76008376339005
STARLINK-1456,45673,53.0395,0.0001488,15.72234259,351.51143294149824,353.5144743677065,1 45673U 20035S   26197.21498080  .00042020  00000+0  31490-3 0  9999,2 45673  53.0395 138.9101 0001488  95.4456 264.6731 15.72234259339104
STARLINK-1458,45675,53.0423,0.0004485,15.6405508,372.928492183205,378.98691513238555,1 45675U 20035U   26197.26014025  .00028973  00000+0  30511-3 0  9993,2 45675  53.0423 155.7453 0004485  74.6750 285.4759 15.64055080338835
STARLINK-1460,45676,53.1555,0.0004915,15.3856165,447.00562199036995,453.71803633944,1 45676U 20035V   26197.33559160  .00027939  00000+0  73047-3 0  9998,2 45676  53.1555 184.5576 0004915  33.9999 326.1319 15.38561650338459
STARLINK-1392,45677,53.1507,0.0005148,15.42049087,436.5525609326669,443.572579210012,1 45677U 20035W   26197.33279786  .00028914  00000+0  67363-3 0  9990,2 45677  53.1507 182.2478 0005148  23.9782 336.1462 15.42049087338529
STARLINK-1394,45679,53.039,0.0001338,15.7072853,355.91254613094134,357.7148189335858,1 45679U 20035Y   26197.81524396  .00039047  00000+0  31213-3 0  9999,2 45679  53.0390 126.4983 0001338 106.2686 253.8478 15.70728530339325
STARLINK-1402,45685,53.0395,0.0001115,15.67765912,364.54384142602066,366.0476269257433,1 45685U 20035AE  26197.20337264  .00031713  00000+0  28755-3 0  9994,2 45685  53.0395 122.0143 0001115 127.1322 232.9796 15.67765912339343
STARLINK-1404,45686,53.155,0.0004699,15.48114962,419.0452255458895,425.43622052999945,1 45686U 20035AF  26197.30230199  .00031181  00000+0  59036-3 0  9990,2 45686  53.1550 162.3544 0004699  16.6728 343.4434 15.48114962338801
STARLINK-1413,45689,53.1552,0.0004955,15.38241442,447.9254418009259,454.69342321554177,1 45689U 20035AJ  26197.31304485  .00024739  00000+0  65503-3 0  9991,2 45689  53.1552 169.3477 0004955  30.4332 329.6959 15.38241442338629
STARLINK-1417,45693,53.0478,0.0002894,15.18482517,508.4325975895472,512.4196979394737,1 45693U 20035AN  26197.38460780  .00013805  00000+0  67536-3 0  9994,2 45693  53.0478 188.2406 0002894 323.7073  36.3725 15.18482517338410
STARLINK-1420,45695,53.0421,0.0001238,15.75112201,343.4796802073688,345.1441585598068,1 45695U 20035AQ  26197.73867868  .00051990  00000+0  34308-3 0  9991,2 45695  53.0421 109.0355 0001238 163.9619 196.1439 15.75112201339562
STARLINK-1422,45696,53.1533,0.0001856,15.40104045,444.53544047740434,447.06848662067387,1 45696U 20035AR  26197.35337997  .00026865  00000+0  66853-3 0  9998,2 45696  53.1533 168.8014 0001856  88.2452 271.8766 15.40104045338712
